STARLINK-34548          
1 64716U 25142W   26193.79733213  .00002172  00000+0  18972-3 0  9995
2 64716  70.0019 358.8957 0003020 262.4320  97.6496 14.98337640 58203
STARLINK-34568          
1 64717U 25142X   26193.75561512  .00002683  00000+0  23255-3 0  9990
2 64717  70.0019 359.1515 0003067 267.0989  92.9819 14.98337773 58227
STARLINK-34546          
1 64718U 25142Y   26193.85575844  .00003361  00000+0  28939-3 0  9993
2 64718  70.0014 358.6968 0003169 270.1131  89.9665 14.98325442 58401
STARLINK-34577          
1 64719U 25142Z   26193.75981031  .00006419  00000+0  54520-3 0  9994
2 64719  70.0017 359.1314 0002919 273.1055  86.9770 14.98332131 58223
STARLINK-34572          
1 64720U 25142AA  26193.75144620  .00003897  00000+0  33416-3 0  9999
2 64720  70.0020 359.1351 0002713 272.6532  87.4317 14.98337551 58387
STARLINK-34558          
1 64721U 25142AB  26193.83335647  .00033228  00000+0  27806-2 0  9996
2 64721  70.0017 358.9248 0002676 276.0207 164.7840 14.98313249  5763
STARLINK-34393          
1 64724U 25144A   26193.78161647  .00018394  00000+0  55407-3 0  9998
2 64724  53.1596 319.3233 0001100  71.2879 288.8243 15.34406860 58885
STARLINK-34562          
1 64725U 25144B   26193.73046956 -.00002478  00000+0 -71658-4 0  9994
2 64725  53.1595 320.4238 0000712  72.6370 287.4709 15.30164077 58836
STARLINK-34557          
1 64726U 25144C   26193.68290427  .00016008  00000+0  48382-3 0  9992
2 64726  53.1597 320.1249 0000840  81.2601 278.8496 15.34405186 58855
STARLINK-34242          
1 64727U 25144D   26193.67252865  .00014166  00000+0  48931-3 0  9999
2 64727  53.1609 320.7685 0000850 101.7672 258.3425 15.30211439 58843
STARLINK-34239          
1 64728U 25144E   26193.66606515  .00045411  00000+0  13456-2 0  9994
2 64728  53.1608 320.0208 0000981  53.4248 306.6845 15.34434182 58854
STARLINK-34588          
1 64729U 25144F   26193.59349793  .00016854  00000+0  57979-3 0  9997
2 64729  53.1578 320.9887 0001190  98.5640 261.5496 15.30203568 58839
STARLINK-34606          
1 64730U 25144G   26193.72489294  .00022305  00000+0  66920-3 0  9999
2 64730  53.1596 319.6773 0000062 147.6938 212.4069 15.34404458 58862
STARLINK-34552          
1 64731U 25144H   26193.69458045  .00013095  00000+0  45308-3 0  9999
2 64731  53.1605 320.1964 0000538  32.7324 327.3710 15.30226715 58856
STARLINK-34596          
1 64732U 25144J   26193.64923928  .00011366  00000+0  34701-3 0  9996
2 64732  53.1601 319.9191 0001317  98.1801 261.9351 15.34401401 58858
STARLINK-34556          
1 64733U 25144K   26193.67392529  .00012864  00000+0  39120-3 0  9991
2 64733  53.1598 315.8111 0000956 106.6393 253.4714 15.34400279 58918
STARLINK-34591          
1 64734U 25144L   26193.83335647  .00048779  00000+0  14855-2 0  9999
2 64734  53.1605 319.5247 0001290  89.5040 330.5304 15.33535807  5862
STARLINK-34587          
1 64735U 25144M   26193.72835015  .00000823  00000+0  39913-4 0  9994
2 64735  53.1590 320.4103 0000722  82.0288 278.0794 15.30186929 58804
STARLINK-34130          
1 64736U 25144N   26193.66817419  .00020445  00000+0  61457-3 0  9995
2 64736  53.1593 320.0290 0000990 102.5809 257.5305 15.34400724 58856
STARLINK-34619          
1 64737U 25144P   26193.67675152  .00011073  00000+0  38538-3 0  9994
2 64737  53.1599 320.7914 0001135  72.0781 288.0343 15.30204889 58845
STARLINK-34597          
1 64738U 25144Q   26193.72279647  .00013559  00000+0  41164-3 0  9990
2 64738  53.1594 319.6643 0001568  80.0891 280.0288 15.34404217 58849
STARLINK-34471          
1 64739U 25144R   26193.72516882  .00025951  00000+0  88428-3 0  9999
2 64739  53.1598 320.3853 0001283  97.1359 262.9788 15.30236209 58796
STARLINK-34208          
1 64740U 25144S   26193.54996319  .00009136  00000+0  28122-3 0  9990
2 64740  53.1601 316.4586 0001173 104.5942 255.5190 15.34397481 58891
STARLINK-34205          
1 64741U 25144T   26193.59041758  .00024707  00000+0  73991-3 0  9999
2 64741  53.1608 320.2575 0001167  92.5345 267.5791 15.34401876 58845
STARLINK-34607          
1 64742U 25144U   26193.73151417  .00017953  00000+0  61673-3 0  9999
2 64742  53.1593 320.4257 0000929  90.4858 269.6250 15.30204144 58836
STARLINK-34236          
1 64743U 25144V   26193.66186716  .00017721  00000+0  53423-3 0  9999
2 64743  53.1603 319.9891 0000596  53.0954 307.0103 15.34407272 58855
STARLINK-34185          
1 64744U 25144W   26193.56078319  .00010150  00000+0  35432-3 0  9997
2 64744  53.1613 320.7803 0001262  75.1197 284.9944 15.30203366 58833
STARLINK-34581          
1 64745U 25144X   26193.67464488  .00014218  00000+0  49095-3 0  9995
2 64745  53.1613 320.7788 0001209  46.6032 313.5070 15.30220844 58848
STARLINK-34592          
1 64746U 25144Y   26193.73412319  .00016563  00000+0  56990-3 0  9996
2 64746  53.1590 307.6600 0000687  83.3910 276.7168 15.30211027 59035
STARLINK-34589          
1 64747U 25144Z   26193.83335647  .00027455  00000+0  82093-3 0  9991
2 64747  53.1601 307.0317 0000993  82.8587 157.1396 15.34392180  5807
