OBJECT_NAME,OBJECT_ID,EPOCH,MEAN_MOTION,ECCENTRICITY,INCLINATION,RA_OF_ASC_NODE,ARG_OF_PERICENTER,MEAN_ANOMALY,EPHEMERIS_TYPE,CLASSIFICATION_TYPE,NORAD_CAT_ID,ELEMENT_SET_NO,REV_AT_EPOCH,BSTAR,MEAN_MOTION_DOT,MEAN_MOTION_DDOT
STARLINK-34548,2025-142W,2026-07-12T19:08:09.496032,14.98337640,.000302,70.0019,358.8957,262.4320,97.6496,0,U,64716,999,5820,.18972E-3,.2172E-4,0
STARLINK-34568,2025-142X,2026-07-12T18:08:05.146368,14.98337773,.0003067,70.0019,359.1515,267.0989,92.9819,0,U,64717,999,5822,.23255E-3,.2683E-4,0
STARLINK-34546,2025-142Y,2026-07-12T20:32:17.529216,14.98325442,.0003169,70.0014,358.6968,270.1131,89.9665,0,U,64718,999,5840,.28939E-3,.3361E-4,0
STARLINK-34577,2025-142Z,2026-07-12T18:14:07.610784,14.98332131,.0002919,70.0017,359.1314,273.1055,86.9770,0,U,64719,999,5822,.5452E-3,.6419E-4,0
STARLINK-34572,2025-142AA,2026-07-12T18:02:04.951680,14.98337551,.0002713,70.0020,359.1351,272.6532,87.4317,0,U,64720,999,5838,.33416E-3,.3897E-4,0
STARLINK-34558,2025-142AB,2026-07-12T20:00:01.999008,14.98313249,.0002676,70.0017,358.9248,276.0207,164.7840,0,U,64721,999,576,.27806E-2,.33228E-3,0
STARLINK-34393,2025-144A,2026-07-12T18:45:31.663008,15.34406860,.00011,53.1596,319.3233,71.2879,288.8243,0,U,64724,999,5888,.55407E-3,.18394E-3,0
STARLINK-34562,2025-144B,2026-07-12T17:31:52.569984,15.30164077,.0000712,53.1595,320.4238,72.6370,287.4709,0,U,64725,999,5883,-.71658E-4,-.2478E-4,0
STARLINK-34557,2025-144C,2026-07-12T16:23:22.928928,15.34405186,.000084,53.1597,320.1249,81.2601,278.8496,0,U,64726,999,5885,.48382E-3,.16008E-3,0
STARLINK-34242,2025-144D,2026-07-12T16:08:26.475360,15.30211439,.000085,53.1609,320.7685,101.7672,258.3425,0,U,64727,999,5884,.48931E-3,.14166E-3,0
STARLINK-34239,2025-144E,2026-07-12T15:59:08.028960,15.34434182,.0000981,53.1608,320.0208,53.4248,306.6845,0,U,64728,999,5885,.13456E-2,.45411E-3,0
STARLINK-34588,2025-144F,2026-07-12T14:14:38.221152,15.30203568,.000119,53.1578,320.9887,98.5640,261.5496,0,U,64729,999,5883,.57979E-3,.16854E-3,0
STARLINK-34606,2025-144G,2026-07-12T17:23:50.750016,15.34404458,.0000062,53.1596,319.6773,147.6938,212.4069,0,U,64730,999,5886,.6692E-3,.22305E-3,0
STARLINK-34552,2025-144H,2026-07-12T16:40:11.750880,15.30226715,.0000538,53.1605,320.1964,32.7324,327.3710,0,U,64731,999,5885,.45308E-3,.13095E-3,0
STARLINK-34596,2025-144J,2026-07-12T15:34:54.273792,15.34401401,.0001317,53.1601,319.9191,98.1801,261.9351,0,U,64732,999,5885,.34701E-3,.11366E-3,0
STARLINK-34556,2025-144K,2026-07-12T16:10:27.145056,15.34400279,.0000956,53.1598,315.8111,106.6393,253.4714,0,U,64733,999,5891,.3912E-3,.12864E-3,0
STARLINK-34591,2025-144L,2026-07-12T20:00:01.999008,15.33535807,.000129,53.1605,319.5247,89.5040,330.5304,0,U,64734,999,586,.14855E-2,.48779E-3,0
STARLINK-34587,2025-144M,2026-07-12T17:28:49.452960,15.30186929,.0000722,53.1590,320.4103,82.0288,278.0794,0,U,64735,999,5880,.39913E-4,.823E-5,0
STARLINK-34130,2025-144N,2026-07-12T16:02:10.250016,15.34400724,.000099,53.1593,320.0290,102.5809,257.5305,0,U,64736,999,5885,.61457E-3,.20445E-3,0
STARLINK-34619,2025-144P,2026-07-12T16:14:31.331328,15.30204889,.0001135,53.1599,320.7914,72.0781,288.0343,0,U,64737,999,5884,.38538E-3,.11073E-3,0
STARLINK-34597,2025-144Q,2026-07-12T17:20:49.615008,15.34404217,.0001568,53.1594,319.6643,80.0891,280.0288,0,U,64738,999,5884,.41164E-3,.13559E-3,0
STARLINK-34471,2025-144R,2026-07-12T17:24:14.586048,15.30236209,.0001283,53.1598,320.3853,97.1359,262.9788,0,U,64739,999,5879,.88428E-3,.25951E-3,0
STARLINK-34208,2025-144S,2026-07-12T13:11:56.819616,15.34397481,.0001173,53.1601,316.4586,104.5942,255.5190,0,U,64740,999,5889,.28122E-3,.9136E-4,0
STARLINK-34205,2025-144T,2026-07-12T14:10:12.078912,15.34401876,.0001167,53.1608,320.2575,92.5345,267.5791,0,U,64741,999,5884,.73991E-3,.24707E-3,0
STARLINK-34607,2025-144U,2026-07-12T17:33:22.824288,15.30204144,.0000929,53.1593,320.4257,90.4858,269.6250,0,U,64742,999,5883,.61673E-3,.17953E-3,0
STARLINK-34236,2025-144V,2026-07-12T15:53:05.322624,15.34407272,.0000596,53.1603,319.9891,53.0954,307.0103,0,U,64743,999,5885,.53423E-3,.17721E-3,0
STARLINK-34185,2025-144W,2026-07-12T13:27:31.667616,15.30203366,.0001262,53.1613,320.7803,75.1197,284.9944,0,U,64744,999,5883,.35432E-3,.1015E-3,0
STARLINK-34581,2025-144X,2026-07-12T16:11:29.317632,15.30220844,.0001209,53.1613,320.7788,46.6032,313.5070,0,U,64745,999,5884,.49095E-3,.14218E-3,0
STARLINK-34592,2025-144Y,2026-07-12T17:37:08.243616,15.30211027,.0000687,53.1590,307.6600,83.3910,276.7168,0,U,64746,999,5903,.5699E-3,.16563E-3,0
STARLINK-34589,2025-144Z,2026-07-12T20:00:01.999008,15.34392180,.0000993,53.1601,307.0317,82.8587,157.1396,0,U,64747,999,580,.82093E-3,.27455E-3,0
